ONEWEB-0264             
1 48982U 21060R   24040.03868333 -.00000004  00000+0 -43164-4 0  9991
2 48982  87.9048  39.7719 0001940  88.3218 271.8135 13.16592924127839
ONEWEB-0266             
1 48984U 21060T   24039.90805583  .00000114  00000+0  26508-3 0  9997
2 48984  87.9048  39.7788 0001681  86.5946 273.5377 13.16594635126519
ONEWEB-0267             
1 48985U 21060U   24039.91914913  .00000100  00000+0  22677-3 0  9995
2 48985  87.9048  39.7777 0002294  88.5334 271.6060 13.16594439126523
ONEWEB-0268             
1 48986U 21060V   24040.03947824  .00000002  00000+0 -29090-4 0  9997
2 48986  87.9046  39.7596 0001989  92.5653 267.5705 13.16594393128093
ONEWEB-0269             
1 48987U 21060W   24039.94446599 -.00000007  00000+0 -52368-4 0  9999
2 48987  87.9051  39.8005 0001806  90.3609 269.7729 13.16596110126560
ONEWEB-0270             
1 48988U 21060X   24040.03789401  .00000011  00000+0 -50673-5 0  9996
2 48988  87.9045  39.7698 0002287  75.8571 284.2814 13.16595622127926
ONEWEB-0271             
1 48989U 21060Y   24039.94922466 -.00000014  00000+0 -69405-4 0  9991
2 48989  87.9046  39.7628 0002252  84.2931 275.8456 13.16593125126605
ONEWEB-0272             
1 48990U 21060Z   24040.04738955  .00000062  00000+0  12985-3 0  9995
2 48990  87.9048  39.7700 0002149  87.1590 272.9787 13.16592770127867
